{
  "norad_id": 54061,
  "name": "STARLINK-5209",
  "history": [
    {
      "epoch": "2026-03-28T15:50:43.262880Z",
      "apogee_km": 540.6430462779663,
      "perigee_km": 538.877598881244,
      "latitude_deg": -2.561380875698249e-05,
      "longitude_deg": 159.81163768856374,
      "height_km": 540.674636319027,
      "semi_major_axis_km": 6917.897322579605,
      "eccentricity": 0.0001276,
      "inclination_deg": 53.2172,
      "raan_deg": 223.5694,
      "arg_perigee_deg": 91.2016,
      "mean_anomaly_deg": 268.9122,
      "mean_motion_rev_day": 15.0883446
    },
    {
      "epoch": "2026-03-29T01:23:01.976064Z",
      "apogee_km": 540.6585348857443,
      "perigee_km": 538.8529648780241,
      "latitude_deg": -4.3643855616572956e-05,
      "longitude_deg": 14.558019013492691,
      "height_km": 540.6149256501855,
      "semi_major_axis_km": 6917.892749881884,
      "eccentricity": 0.0001305,
      "inclination_deg": 53.2176,
      "raan_deg": 221.7855,
      "arg_perigee_deg": 87.6743,
      "mean_anomaly_deg": 272.4398,
      "mean_motion_rev_day": 15.08835956
    },
    {
      "epoch": "2026-03-30T01:13:48.582336Z",
      "apogee_km": 540.5418290735497,
      "perigee_km": 538.933284881562,
      "latitude_deg": 2.585934490311366e-05,
      "longitude_deg": 11.42474652800176,
      "height_km": 540.8221868622878,
      "semi_major_axis_km": 6917.874556977556,
      "eccentricity": 0.00011626,
      "inclination_deg": 53.2168,
      "raan_deg": 217.3257,
      "arg_perigee_deg": 103.5678,
      "mean_anomaly_deg": 256.5444,
      "mean_motion_rev_day": 15.08841908
    },
    {
      "epoch": "2026-03-30T15:32:17.689344Z",
      "apogee_km": 540.6473394556606,
      "perigee_km": 538.885764495185,
      "latitude_deg": 1.4650254694599509e-05,
      "longitude_deg": 153.54034749962653,
      "height_km": 540.7115473265909,
      "semi_major_axis_km": 6917.9035519754225,
      "eccentricity": 0.00012732,
      "inclination_deg": 53.2179,
      "raan_deg": 214.6502,
      "arg_perigee_deg": 93.1969,
      "mean_anomaly_deg": 266.9169,
      "mean_motion_rev_day": 15.08832422
    },
    {
      "epoch": "2026-03-30T17:07:40.656000Z",
      "apogee_km": 540.6711594253484,
      "perigee_km": 538.8445584667925,
      "latitude_deg": -3.3652450740059476e-05,
      "longitude_deg": 129.33133007173168,
      "height_km": 540.6642602179031,
      "semi_major_axis_km": 6917.894858946071,
      "eccentricity": 0.00013202,
      "inclination_deg": 53.2183,
      "raan_deg": 214.3522,
      "arg_perigee_deg": 90.6613,
      "mean_anomaly_deg": 269.453,
      "mean_motion_rev_day": 15.08835266
    },
    {
      "epoch": "2026-03-31T01:04:36.391296Z",
      "apogee_km": 540.666824580796,
      "perigee_km": 538.8439599354369,
      "latitude_deg": -9.36285524280703e-06,
      "longitude_deg": 8.285871877818948,
      "height_km": 540.6492705324714,
      "semi_major_axis_km": 6917.892392258116,
      "eccentricity": 0.00013175,
      "inclination_deg": 53.2184,
      "raan_deg": 212.8654,
      "arg_perigee_deg": 89.8747,
      "mean_anomaly_deg": 270.2396,
      "mean_motion_rev_day": 15.08836073
    },
    {
      "epoch": "2026-04-01T07:16:55.888032Z",
      "apogee_km": 540.7080058237843,
      "perigee_km": 538.7959013170175,
      "latitude_deg": -1.2591705557180382e-05,
      "longitude_deg": -91.68535755409903,
      "height_km": 540.5855736943447,
      "semi_major_axis_km": 6917.8889535704,
      "eccentricity": 0.0001382,
      "inclination_deg": 53.2183,
      "raan_deg": 207.2159,
      "arg_perigee_deg": 86.2723,
      "mean_anomaly_deg": 273.8427,
      "mean_motion_rev_day": 15.08837198
    },
    {
      "epoch": "2026-04-02T16:40:01.344000Z",
      "apogee_km": 540.7808049569185,
      "perigee_km": 538.6819236951824,
      "latitude_deg": 1.8805684895114022e-05,
      "longitude_deg": 119.92296691065427,
      "height_km": 540.5823764296648,
      "semi_major_axis_km": 6917.86836432605,
      "eccentricity": 0.0001517,
      "inclination_deg": 53.2146,
      "raan_deg": 200.968,
      "arg_perigee_deg": 87.5873,
      "mean_anomaly_deg": 272.5293,
      "mean_motion_rev_day": 15.08843934
    },
    {
      "epoch": "2026-04-02T16:40:01.344864Z",
      "apogee_km": 540.7808018998685,
      "perigee_km": 538.6819206390601,
      "latitude_deg": 1.8805649575658725e-05,
      "longitude_deg": 119.92296330076971,
      "height_km": 540.5823733735008,
      "semi_major_axis_km": 6917.868361269464,
      "eccentricity": 0.0001517,
      "inclination_deg": 53.2146,
      "raan_deg": 200.968,
      "arg_perigee_deg": 87.5873,
      "mean_anomaly_deg": 272.5293,
      "mean_motion_rev_day": 15.08843935
    },
    {
      "epoch": "2026-04-03T13:20:02.624352Z",
      "apogee_km": 540.0373086131849,
      "perigee_km": 539.4603569347319,
      "latitude_deg": -7.18765322200923e-05,
      "longitude_deg": 165.20040040658392,
      "height_km": 540.6423449222322,
      "semi_major_axis_km": 6917.885832773958,
      "eccentricity": 4.17e-05,
      "inclination_deg": 53.2159,
      "raan_deg": 197.0996,
      "arg_perigee_deg": 89.3467,
      "mean_anomaly_deg": 270.7572,
      "mean_motion_rev_day": 15.08838219
    }
  ]
}